*******************************************************************************
 Revised: January 29, 2025             Uranus                               799
 
 PHYSICAL DATA:
  Mass x10^24 (kg)      = 86.813          Density (g/cm^3)       =  1.271
  Equat. radius (1 bar) = 25559+-4 km     Polar radius (km)      = 24973+-20
  Vol. Mean Radius (km) = 25362+-12       Flattening             =  0.02293
  Geometric Albedo      = 0.51
  Sid. rot. period (III)= 17.24+-0.01 h   Sid. rot. rate (rad/s) = -0.000101237
  Mean solar day, h     =~17.24           Rocky core mass (Mc/M) =  0.0012        
  GM (km^3/s^2)         = 5793950.6103    GM 1-sigma (km^3/s^2)  = +-4.3 
  Equ. grav, ge (m/s^2) =  8.87           Pol. grav, gp (m/s^2)  =   9.19+-0.02
  Visual magnitude V(1,0)= -7.11
  Vis. mag. (opposition)=  +5.52          Obliquity to orbit     = 97.77 deg
  Sidereal orbit period = 84.0120465 y    Sidereal orbit period  = 30685.4 d
  Mean daily motion     = 0.01176904 dg/d Mean orbit velocity    =  6.8 km/s
  Atmos. temp. (1 bar)  =  76+-2 K        Escape speed, km/s     =  21.3           
  Aroche(ice)/Rp        =  2.20           Hill's sphere rad., Rp = 2700
                                 Perihelion   Aphelion    Mean
  Solar Constant (W/m^2)         4.09         3.39        3.71
  Maximum Planetary IR (W/m^2)   0.72         0.55        0.63
  Minimum Planetary IR (W/m^2)   0.72         0.55        0.63
*******************************************************************************


*******************************************************************************
Ephemeris / WWW_USER Wed May 21 10:41:33 2025 Pasadena, USA      / Horizons
*******************************************************************************
Target body name: Uranus (799)                    {source: ura183_merged}
Center body name: Solar System Barycenter (0)     {source: DE441}
Center-site name: BODY CENTER
*******************************************************************************
Start time      : A.D. 1755-Jan-01 00:00:00.0000 TDB
Stop  time      : A.D. 1755-Jan-31 00:00:00.0000 TDB
Step-size       : 1440 minutes
*******************************************************************************
Center geodetic : 0.0, 0.0, 0.0                   {E-lon(deg),Lat(deg),Alt(km)}
Center cylindric: 0.0, 0.0, 0.0                   {E-lon(deg),Dxy(km),Dz(km)}
Center radii    : (undefined)
Output units    : KM-S
Calendar mode   : Mixed Julian/Gregorian
Output type     : GEOMETRIC cartesian states
Output format   : 3 (position, velocity, LT, range, range-rate)
Reference frame : Ecliptic of J2000.0
*******************************************************************************
JDTDB
   X     Y     Z
   VX    VY    VZ
   LT    RG    RR
*******************************************************************************
$$SOE
2362084.500000000 = A.D. 1755-Jan-25 00:00:00.0000 TDB 
 X = 2.892911955096907E+09 Y =-8.117228611367686E+08 Z =-4.082282516202128E+07
 VX= 1.785029295859242E+00 VY= 6.243638172617308E+00 VZ= 2.465713783332824E-04
 LT= 1.002330972141711E+04 RG= 3.004912658678930E+09 RR= 3.188734381105288E-02
2362085.500000000 = A.D. 1755-Jan-26 00:00:00.0000 TDB 
 X = 2.893066121348158E+09 Y =-8.111833957427052E+08 Z =-4.082281322093600E+07
 VX= 1.783574987626403E+00 VY= 6.244008736402560E+00 VZ= 9.562887895908645E-05
 LT= 1.002331887932421E+04 RG= 3.004915404150409E+09 RR= 3.160164102215226E-02
2362086.500000000 = A.D. 1755-Jan-27 00:00:00.0000 TDB 
 X = 2.893220159794147E+09 Y =-8.106438952877271E+08 Z =-4.082279525997984E+07
 VX= 1.782205679847971E+00 VY= 6.244415951467835E+00 VZ= 3.499945307861019E-04
 LT= 1.002332794437049E+04 RG= 3.004918121782916E+09 RR= 3.138236702770905E-02
2362087.500000000 = A.D. 1755-Jan-28 00:00:00.0000 TDB 
 X = 2.893374093284410E+09 Y =-8.101043630920498E+08 Z =-4.082275939626282E+07
 VX= 1.781037019910925E+00 VY= 6.244757636271276E+00 VZ= 4.492231134416436E-04
 LT= 1.002333699238945E+04 RG= 3.004920834310761E+09 RR= 3.137607666444032E-02
2362088.500000000 = A.D. 1755-Jan-29 00:00:00.0000 TDB 
 X = 2.893527921509655E+09 Y =-8.095648000415182E+08 Z =-4.082271239619404E+07
 VX= 1.779853974882922E+00 VY= 6.245119203943815E+00 VZ= 6.630454384883855E-04
 LT= 1.002334602349364E+04 RG= 3.004923541767683E+09 RR= 3.134902580210187E-02
2362089.500000000 = A.D. 1755-Jan-30 00:00:00.0000 TDB 
 X = 2.893681660196206E+09 Y =-8.090252092014961E+08 Z =-4.082265128268582E+07
 VX= 1.778909104629708E+00 VY= 6.245399958895433E+00 VZ= 6.740092884642834E-04
 LT= 1.002335509081794E+04 RG= 3.004926260083122E+09 RR= 3.157585906346932E-02
2362090.500000000 = A.D. 1755-Jan-31 00:00:00.0000 TDB 
 X = 2.893835305402434E+09 Y =-8.084855933200884E+08 Z =-4.082260202471000E+07
 VX= 1.777628617509109E+00 VY= 6.245730713261125E+00 VZ= 5.256754155689158E-04
 LT= 1.002336418534771E+04 RG= 3.004928986554557E+09 RR= 3.146819535435971E-02
